[{"OBJECT_NAME":"SITRO-AIS 5 (KATYS)","OBJECT_ID":"2023-091L","EPOCH":"2026-04-05T20:48:28.810368","MEAN_MOTION":15.27877584,"ECCENTRICITY":0.0011383,"INCLINATION":97.512,"RA_OF_ASC_NODE":159.147,"ARG_OF_PERICENTER":5.7797,"MEAN_ANOMALY":354.3572,"EPHEMERIS_TYPE":0,"CLASSIFICATION_TYPE":"U","NORAD_CAT_ID":57176,"ELEMENT_SET_NO":999,"REV_AT_EPOCH":15329,"BSTAR":0.00055185,"MEAN_MOTION_DOT":0.00014984,"MEAN_MOTION_DDOT":0},{"OBJECT_NAME":"SITRO-AIS 6 (CHIRKIN)","OBJECT_ID":"2023-091AC","EPOCH":"2026-04-05T19:40:49.538784","MEAN_MOTION":15.24855377,"ECCENTRICITY":0.0012199,"INCLINATION":97.5127,"RA_OF_ASC_NODE":158.5795,"ARG_OF_PERICENTER":9.532,"MEAN_ANOMALY":350.6146,"EPHEMERIS_TYPE":0,"CLASSIFICATION_TYPE":"U","NORAD_CAT_ID":57192,"ELEMENT_SET_NO":999,"REV_AT_EPOCH":15325,"BSTAR":0.00031631,"MEAN_MOTION_DOT":7.803e-5,"MEAN_MOTION_DDOT":0},{"OBJECT_NAME":"SITRO-AIS 8 (ANOKHIN)","OBJECT_ID":"2023-091AD","EPOCH":"2026-04-05T19:22:57.060768","MEAN_MOTION":15.30278861,"ECCENTRICITY":0.0010435,"INCLINATION":97.5114,"RA_OF_ASC_NODE":160.3989,"ARG_OF_PERICENTER":2.9724,"MEAN_ANOMALY":357.1576,"EPHEMERIS_TYPE":0,"CLASSIFICATION_TYPE":"U","NORAD_CAT_ID":57193,"ELEMENT_SET_NO":999,"REV_AT_EPOCH":15337,"BSTAR":0.00058068,"MEAN_MOTION_DOT":0.00016977,"MEAN_MOTION_DDOT":0},{"OBJECT_NAME":"SITRO-AIS 7 (FARTUSHNIY)","OBJECT_ID":"2023-091AE","EPOCH":"2026-04-05T19:25:18.526080","MEAN_MOTION":15.24581098,"ECCENTRICITY":0.0012106,"INCLINATION":97.5125,"RA_OF_ASC_NODE":158.4286,"ARG_OF_PERICENTER":10.5149,"MEAN_ANOMALY":349.634,"EPHEMERIS_TYPE":0,"CLASSIFICATION_TYPE":"U","NORAD_CAT_ID":57194,"ELEMENT_SET_NO":999,"REV_AT_EPOCH":15324,"BSTAR":0.00033768,"MEAN_MOTION_DOT":8.267e-5,"MEAN_MOTION_DDOT":0},{"OBJECT_NAME":"SITRO-AIS 10 (BURDAEV)","OBJECT_ID":"2023-091AK","EPOCH":"2026-04-05T20:45:44.724672","MEAN_MOTION":15.36016384,"ECCENTRICITY":0.000591,"INCLINATION":97.5129,"RA_OF_ASC_NODE":164.8123,"ARG_OF_PERICENTER":340.833,"MEAN_ANOMALY":19.269,"EPHEMERIS_TYPE":0,"CLASSIFICATION_TYPE":"U","NORAD_CAT_ID":57199,"ELEMENT_SET_NO":999,"REV_AT_EPOCH":15365,"BSTAR":0.00067252,"MEAN_MOTION_DOT":0.00023559,"MEAN_MOTION_DDOT":0},{"OBJECT_NAME":"SITRO-AIS 9 (SHCHUKIN)","OBJECT_ID":"2023-091AM","EPOCH":"2026-04-05T19:19:19.348320","MEAN_MOTION":15.35593888,"ECCENTRICITY":0.000612,"INCLINATION":97.5128,"RA_OF_ASC_NODE":164.5338,"ARG_OF_PERICENTER":341.1841,"MEAN_ANOMALY":18.9175,"EPHEMERIS_TYPE":0,"CLASSIFICATION_TYPE":"U","NORAD_CAT_ID":57201,"ELEMENT_SET_NO":999,"REV_AT_EPOCH":15363,"BSTAR":0.00069162,"MEAN_MOTION_DOT":0.00023908,"MEAN_MOTION_DDOT":0},{"OBJECT_NAME":"SITRO-AIS 12 (SMIRENNIY)","OBJECT_ID":"2023-091AQ","EPOCH":"2026-04-05T19:24:51.831072","MEAN_MOTION":15.35860772,"ECCENTRICITY":0.0005671,"INCLINATION":97.514,"RA_OF_ASC_NODE":164.9612,"ARG_OF_PERICENTER":334.7378,"MEAN_ANOMALY":25.3587,"EPHEMERIS_TYPE":0,"CLASSIFICATION_TYPE":"U","NORAD_CAT_ID":57204,"ELEMENT_SET_NO":999,"REV_AT_EPOCH":15365,"BSTAR":0.00066652,"MEAN_MOTION_DOT":0.0002323,"MEAN_MOTION_DDOT":0},{"OBJECT_NAME":"SITRO-AIS 11 (SHEFFER)","OBJECT_ID":"2023-091AU","EPOCH":"2026-04-05T20:10:58.442880","MEAN_MOTION":15.36235397,"ECCENTRICITY":0.000556,"INCLINATION":97.5137,"RA_OF_ASC_NODE":165.1982,"ARG_OF_PERICENTER":333.703,"MEAN_ANOMALY":26.3931,"EPHEMERIS_TYPE":0,"CLASSIFICATION_TYPE":"U","NORAD_CAT_ID":57208,"ELEMENT_SET_NO":999,"REV_AT_EPOCH":15367,"BSTAR":0.00065543,"MEAN_MOTION_DOT":0.00023118,"MEAN_MOTION_DDOT":0},{"OBJECT_NAME":"SITRO-AIS 25","OBJECT_ID":"2024-039R","EPOCH":"2026-04-05T20:50:58.729056","MEAN_MOTION":14.92914808,"ECCENTRICITY":0.0144895,"INCLINATION":95.3929,"RA_OF_ASC_NODE":185.4126,"ARG_OF_PERICENTER":220.1878,"MEAN_ANOMALY":138.8563,"EPHEMERIS_TYPE":0,"CLASSIFICATION_TYPE":"U","NORAD_CAT_ID":59066,"ELEMENT_SET_NO":999,"REV_AT_EPOCH":11393,"BSTAR":0.0005823,"MEAN_MOTION_DOT":7.385e-5,"MEAN_MOTION_DDOT":0},{"OBJECT_NAME":"SITRO-AIS 26","OBJECT_ID":"2024-039S","EPOCH":"2026-04-05T20:39:12.994848","MEAN_MOTION":14.92721377,"ECCENTRICITY":0.0145211,"INCLINATION":95.3925,"RA_OF_ASC_NODE":185.3187,"ARG_OF_PERICENTER":220.7375,"MEAN_ANOMALY":138.292,"EPHEMERIS_TYPE":0,"CLASSIFICATION_TYPE":"U","NORAD_CAT_ID":59067,"ELEMENT_SET_NO":999,"REV_AT_EPOCH":11392,"BSTAR":0.00060749,"MEAN_MOTION_DOT":7.672e-5,"MEAN_MOTION_DDOT":0},{"OBJECT_NAME":"SITRO-AIS 27","OBJECT_ID":"2024-039T","EPOCH":"2026-04-05T20:24:58.591296","MEAN_MOTION":14.9312114,"ECCENTRICITY":0.0144432,"INCLINATION":95.3924,"RA_OF_ASC_NODE":185.551,"ARG_OF_PERICENTER":219.5524,"MEAN_ANOMALY":139.5093,"EPHEMERIS_TYPE":0,"CLASSIFICATION_TYPE":"U","NORAD_CAT_ID":59068,"ELEMENT_SET_NO":999,"REV_AT_EPOCH":11394,"BSTAR":0.00058159,"MEAN_MOTION_DOT":7.408e-5,"MEAN_MOTION_DDOT":0},{"OBJECT_NAME":"SITRO-AIS 28","OBJECT_ID":"2024-039U","EPOCH":"2026-04-05T19:54:54.568800","MEAN_MOTION":14.93156174,"ECCENTRICITY":0.0144364,"INCLINATION":95.3926,"RA_OF_ASC_NODE":185.5805,"ARG_OF_PERICENTER":219.5275,"MEAN_ANOMALY":139.5353,"EPHEMERIS_TYPE":0,"CLASSIFICATION_TYPE":"U","NORAD_CAT_ID":59071,"ELEMENT_SET_NO":999,"REV_AT_EPOCH":11394,"BSTAR":0.0004663,"MEAN_MOTION_DOT":5.936e-5,"MEAN_MOTION_DDOT":0},{"OBJECT_NAME":"GRBBETA","OBJECT_ID":"2024-128C","EPOCH":"2026-04-05T11:11:08.592288","MEAN_MOTION":15.06072619,"ECCENTRICITY":0.00489634,"INCLINATION":61.9883,"RA_OF_ASC_NODE":111.2937,"ARG_OF_PERICENTER":119.3116,"MEAN_ANOMALY":241.2882,"EPHEMERIS_TYPE":0,"CLASSIFICATION_TYPE":"U","NORAD_CAT_ID":60237,"ELEMENT_SET_NO":999,"REV_AT_EPOCH":9531,"BSTAR":0.00033997294,"MEAN_MOTION_DOT":4.907e-5,"MEAN_MOTION_DDOT":0},{"OBJECT_NAME":"OOV-CUBE (TUBSAT-30)","OBJECT_ID":"2024-128F","EPOCH":"2026-04-05T10:51:35.718336","MEAN_MOTION":15.0242578,"ECCENTRICITY":0.00522747,"INCLINATION":61.9933,"RA_OF_ASC_NODE":119.1263,"ARG_OF_PERICENTER":117.8694,"MEAN_ANOMALY":242.7706,"EPHEMERIS_TYPE":0,"CLASSIFICATION_TYPE":"U","NORAD_CAT_ID":60240,"ELEMENT_SET_NO":999,"REV_AT_EPOCH":9518,"BSTAR":0.0002340195,"MEAN_MOTION_DOT":2.993e-5,"MEAN_MOTION_DDOT":0},{"OBJECT_NAME":"ROBUSTA-3A (MEDITERRANEE)","OBJECT_ID":"2024-128J","EPOCH":"2026-04-05T17:49:24.593664","MEAN_MOTION":15.10588967,"ECCENTRICITY":0.0049295,"INCLINATION":61.9849,"RA_OF_ASC_NODE":104.2111,"ARG_OF_PERICENTER":113.2505,"MEAN_ANOMALY":247.3791,"EPHEMERIS_TYPE":0,"CLASSIFICATION_TYPE":"U","NORAD_CAT_ID":60243,"ELEMENT_SET_NO":999,"REV_AT_EPOCH":9547,"BSTAR":0.00047165,"MEAN_MOTION_DOT":7.837e-5,"MEAN_MOTION_DDOT":0},{"OBJECT_NAME":"LASARSAT","OBJECT_ID":"2024-247Q","EPOCH":"2026-04-04T00:44:37.904064","MEAN_MOTION":15.42003564,"ECCENTRICITY":0.00053797,"INCLINATION":44.9765,"RA_OF_ASC_NODE":317.4987,"ARG_OF_PERICENTER":237.3439,"MEAN_ANOMALY":122.693,"EPHEMERIS_TYPE":0,"CLASSIFICATION_TYPE":"U","NORAD_CAT_ID":62391,"ELEMENT_SET_NO":999,"REV_AT_EPOCH":7185,"BSTAR":0.0012739779,"MEAN_MOTION_DOT":0.00055577,"MEAN_MOTION_DDOT":0}]
